{"type": "FeatureCollection", "features": [ {"type": "Feature", "properties": {"norad_id": 58662, "name": "TIANMU-1 21", "group": "weather", "lat": 7.75307699459263, "lon": -76.79453314018792, "alt_km": 472.3526810371268, "timestamp": "2025-12-14T18:52:55.142478+00:00", "meta": {"OBJECT_NAME": "TIANMU-1 21", "OBJECT_ID": "2023-208C", "EPOCH": "2025-12-13T23:18:59.382432", "MEAN_MOTION": 15.31586859, "ECCENTRICITY": 0.00058834, "INCLINATION": 97.437, "RA_OF_ASC_NODE": 101.3685, "ARG_OF_PERICENTER": 254.9341, "MEAN_ANOMALY": 105.1249, "EPHEMERIS_TYPE": 0, "CLASSIFICATION_TYPE": "U", "NORAD_CAT_ID": 58662, "ELEMENT_SET_NO": 999, "REV_AT_EPOCH": 10918, "BSTAR": 0.00039661575, "MEAN_MOTION_DOT": 0.00012031, "MEAN_MOTION_DDOT": 0}, "tle": {"line1": "1 58662U 23208C   25347.97152063  .00012031  00000+0  39662-3 0  9991", "line2": "2 58662  97.4370 101.3685 0005883 254.9341 105.1249 15.31586859109187"}}, "geometry": {"type": "Point", "coordinates": [-76.79453314018792, 7.75307699459263]}}, {"type": "Feature", "properties": {"norad_id": 58663, "name": "TIANMU-1 22", "group": "weather", "lat": 64.24608877163885, "lon": 84.1656960568169, "alt_km": 478.15129362260905, "timestamp": "2025-12-14T18:52:55.142489+00:00", "meta": {"OBJECT_NAME": "TIANMU-1 22", "OBJECT_ID": "2023-208D", "EPOCH": "2025-12-13T23:43:57.017568", "MEAN_MOTION": 15.27633702, "ECCENTRICITY": 0.00026504, "INCLINATION": 97.4378, "RA_OF_ASC_NODE": 99.0816, "ARG_OF_PERICENTER": 279.8647, "MEAN_ANOMALY": 80.2293, "EPHEMERIS_TYPE": 0, "CLASSIFICATION_TYPE": "U", "NORAD_CAT_ID": 58663, "ELEMENT_SET_NO": 999, "REV_AT_EPOCH": 10902, "BSTAR": 0.00037088522, "MEAN_MOTION_DOT": 9.949e-05, "MEAN_MOTION_DDOT": 0}, "tle": {"line1": "1 58663U 23208D   25347.98885437  .00009949  00000+0  37089-3 0  9996", "line2": "2 58663  97.4378  99.0816 0002650 279.8647  80.2293 15.27633702109029"}}, "geometry": {"type": "Point", "coordinates": [84.1656960568169, 64.24608877163885]}}, {"type": "Feature", "properties": {"norad_id": 58700, "name": "TIANMU-1 15", "group": "weather", "lat": 6.088156873421497, "lon": -8.949750637354823, "alt_km": 495.3459681943268, "timestamp": "2025-12-14T18:52:55.142501+00:00", "meta": {"OBJECT_NAME": "TIANMU-1 15", "OBJECT_ID": "2024-004A", "EPOCH": "2025-12-11T12:56:40.540704", "MEAN_MOTION": 15.24670451, "ECCENTRICITY": 0.00052437, "INCLINATION": 97.4631, "RA_OF_ASC_NODE": 167.0136, "ARG_OF_PERICENTER": 303.7498, "MEAN_ANOMALY": 56.324, "EPHEMERIS_TYPE": 0, "CLASSIFICATION_TYPE": "U", "NORAD_CAT_ID": 58700, "ELEMENT_SET_NO": 999, "REV_AT_EPOCH": 10716, "BSTAR": 0.00086402607, "MEAN_MOTION_DOT": 0.00021326, "MEAN_MOTION_DDOT": 0}, "tle": {"line1": "1 58700U 24004A   25345.53935811  .00021326  00000+0  86403-3 0  9991", "line2": "2 58700  97.4631 167.0136 0005243 303.7498  56.3240 15.24670451107164"}}, "geometry": {"type": "Point", "coordinates": [-8.949750637354823, 6.088156873421497]}}, {"type": "Feature", "properties": {"norad_id": 58701, "name": "TIANMU-1 16", "group": "weather", "lat": -71.64700380456881, "lon": -33.619016710699555, "alt_km": 497.21349644636757, "timestamp": "2025-12-14T18:52:55.142512+00:00", "meta": {"OBJECT_NAME": "TIANMU-1 16", "OBJECT_ID": "2024-004B", "EPOCH": "2025-12-14T00:26:44.752128", "MEAN_MOTION": 15.24456317, "ECCENTRICITY": 0.00044166, "INCLINATION": 97.4568, "RA_OF_ASC_NODE": 168.8709, "ARG_OF_PERICENTER": 290.9237, "MEAN_ANOMALY": 69.1528, "EPHEMERIS_TYPE": 0, "CLASSIFICATION_TYPE": "U", "NORAD_CAT_ID": 58701, "ELEMENT_SET_NO": 999, "REV_AT_EPOCH": 10754, "BSTAR": 0.00031812527, "MEAN_MOTION_DOT": 7.742e-05, "MEAN_MOTION_DDOT": 0}, "tle": {"line1": "1 58701U 24004B   25348.01857352  .00007742  00000+0  31813-3 0  9992", "line2": "2 58701  97.4568 168.8709 0004416 290.9237  69.1528 15.24456317107544"}}, "geometry": {"type": "Point", "coordinates": [-33.619016710699555, -71.64700380456881]}}, {"type": "Feature", "properties": {"norad_id": 58702, "name": "TIANMU-1 17", "group": "weather", "lat": -21.900541741359657, "lon": 173.0661574154104, "alt_km": 495.97081629653894, "timestamp": "2025-12-14T18:52:55.142523+00:00", "meta": {"OBJECT_NAME": "TIANMU-1 17", "OBJECT_ID": "2024-004C", "EPOCH": "2025-12-14T00:04:30.696384", "MEAN_MOTION": 15.2449987, "ECCENTRICITY": 0.00036345, "INCLINATION": 97.4603, "RA_OF_ASC_NODE": 169.2663, "ARG_OF_PERICENTER": 294.2463, "MEAN_ANOMALY": 65.8395, "EPHEMERIS_TYPE": 0, "CLASSIFICATION_TYPE": "U", "NORAD_CAT_ID": 58702, "ELEMENT_SET_NO": 999, "REV_AT_EPOCH": 10753, "BSTAR": 0.00033317972, "MEAN_MOTION_DOT": 8.122e-05, "MEAN_MOTION_DDOT": 0}, "tle": {"line1": "1 58702U 24004C   25348.00313306  .00008122  00000+0  33318-3 0  9993", "line2": "2 58702  97.4603 169.2663 0003634 294.2463  65.8395 15.24499870107533"}}, "geometry": {"type": "Point", "coordinates": [173.0661574154104, -21.900541741359657]}}, {"type": "Feature", "properties": {"norad_id": 58703, "name": "TIANMU-1 18", "group": "weather", "lat": 68.14167405397848, "lon": 151.1715874691659, "alt_km": 487.19769810814705, "timestamp": "2025-12-14T18:52:55.142533+00:00", "meta": {"OBJECT_NAME": "TIANMU-1 18", "OBJECT_ID": "2024-004D", "EPOCH": "2025-12-13T23:40:30.062784", "MEAN_MOTION": 15.24486876, "ECCENTRICITY": 0.0002984, "INCLINATION": 97.462, "RA_OF_ASC_NODE": 169.4452, "ARG_OF_PERICENTER": 294.6118, "MEAN_ANOMALY": 65.4808, "EPHEMERIS_TYPE": 0, "CLASSIFICATION_TYPE": "U", "NORAD_CAT_ID": 58703, "ELEMENT_SET_NO": 999, "REV_AT_EPOCH": 10753, "BSTAR": 0.00034122723, "MEAN_MOTION_DOT": 8.316e-05, "MEAN_MOTION_DDOT": 0}, "tle": {"line1": "1 58703U 24004D   25347.98645906  .00008316  00000+0  34123-3 0  9994", "line2": "2 58703  97.4620 169.4452 0002984 294.6118  65.4808 15.24486876107536"}}, "geometry": {"type": "Point", "coordinates": [151.1715874691659, 68.14167405397848]}}, {"type": "Feature", "properties": {"norad_id": 58990, "name": "INSAT-3DS", "group": "weather", "lat": 0.008853851970742732, "lon": 89.00611629371429, "alt_km": 35791.14498218449, "timestamp": "2025-12-14T18:52:55.142544+00:00", "meta": {"OBJECT_NAME": "INSAT-3DS", "OBJECT_ID": "2024-033A", "EPOCH": "2025-12-13T23:19:38.640864", "MEAN_MOTION": 1.00272571, "ECCENTRICITY": 0.00012439, "INCLINATION": 0.0429, "RA_OF_ASC_NODE": 132.5615, "ARG_OF_PERICENTER": 132.5364, "MEAN_ANOMALY": 249.795, "EPHEMERIS_TYPE": 0, "CLASSIFICATION_TYPE": "U", "NORAD_CAT_ID": 58990, "ELEMENT_SET_NO": 999, "REV_AT_EPOCH": 4521, "BSTAR": 0, "MEAN_MOTION_DOT": -1.39e-06, "MEAN_MOTION_DDOT": 0}, "tle": {"line1": "1 58990U 24033A   25347.97197501 -.00000139  00000+0  00000+0 0  9995", "line2": "2 58990   0.0429 132.5615 0001243 132.5364 249.7950  1.00272571 45218"}}, "geometry": {"type": "Point", "coordinates": [89.00611629371429, 0.008853851970742732]}}, {"type": "Feature", "properties": {"norad_id": 59051, "name": "METEOR-M2 4", "group": "weather", "lat": -32.787997127540024, "lon": 120.0184023211438, "alt_km": 827.1371212093618, "timestamp": "2025-12-14T18:52:55.142568+00:00", "meta": {"OBJECT_NAME": "METEOR-M2 4", "OBJECT_ID": "2024-039A", "EPOCH": "2025-12-13T23:18:43.915104", "MEAN_MOTION": 14.22401537, "ECCENTRICITY": 0.00069751, "INCLINATION": 98.6767, "RA_OF_ASC_NODE": 304.8609, "ARG_OF_PERICENTER": 355.0509, "MEAN_ANOMALY": 5.0599, "EPHEMERIS_TYPE": 0, "CLASSIFICATION_TYPE": "U", "NORAD_CAT_ID": 59051, "ELEMENT_SET_NO": 999, "REV_AT_EPOCH": 9293, "BSTAR": 5.0719395e-05, "MEAN_MOTION_DOT": 6.9e-07, "MEAN_MOTION_DDOT": 0}, "tle": {"line1": "1 59051U 24039A   25347.97134161  .00000069  00000+0  50719-4 0  9991", "line2": "2 59051  98.6767 304.8609 0006975 355.0509   5.0599 14.22401537 92939"}}, "geometry": {"type": "Point", "coordinates": [120.0184023211438, -32.787997127540024]}}, {"type": "Feature", "properties": {"norad_id": 60133, "name": "GOES 19", "group": "weather", "lat": 0.00416753815653099, "lon": -68.2848499667467, "alt_km": 35781.78773240789, "timestamp": "2025-12-14T18:52:55.142584+00:00", "meta": {"OBJECT_NAME": "GOES 19", "OBJECT_ID": "2024-119A", "EPOCH": "2025-12-13T21:39:05.933664", "MEAN_MOTION": 1.00270268, "ECCENTRICITY": 0.00012463, "INCLINATION": 0.0147, "RA_OF_ASC_NODE": 155.1823, "ARG_OF_PERICENTER": 160.4172, "MEAN_ANOMALY": 16.8095, "EPHEMERIS_TYPE": 0, "CLASSIFICATION_TYPE": "U", "NORAD_CAT_ID": 60133, "ELEMENT_SET_NO": 999, "REV_AT_EPOCH": 510, "BSTAR": 0, "MEAN_MOTION_DOT": -2.32e-06, "MEAN_MOTION_DDOT": 0}, "tle": {"line1": "1 60133U 24119A   25347.90215201 -.00000232  00000+0  00000+0 0  9997", "line2": "2 60133   0.0147 155.1823 0001246 160.4172  16.8095  1.00270268  5107"}}, "geometry": {"type": "Point", "coordinates": [-68.2848499667467, 0.00416753815653099]}}, {"type": "Feature", "properties": {"norad_id": 65815, "name": "FENGYUN 3H", "group": "weather", "lat": 71.56168921644039, "lon": -98.86382873882859, "alt_km": 818.3126585769223, "timestamp": "2025-12-14T18:52:55.142607+00:00", "meta": {"OBJECT_NAME": "FENGYUN 3H", "OBJECT_ID": "2025-219A", "EPOCH": "2025-12-13T22:14:30.767136", "MEAN_MOTION": 14.19905149, "ECCENTRICITY": 6.349e-05, "INCLINATION": 98.6585, "RA_OF_ASC_NODE": 287.4914, "ARG_OF_PERICENTER": 95.2309, "MEAN_ANOMALY": 264.894, "EPHEMERIS_TYPE": 0, "CLASSIFICATION_TYPE": "U", "NORAD_CAT_ID": 65815, "ELEMENT_SET_NO": 999, "REV_AT_EPOCH": 1109, "BSTAR": 9.0792051e-05, "MEAN_MOTION_DOT": 1.5e-06, "MEAN_MOTION_DDOT": 0}, "tle": {"line1": "1 65815U 25219A   25347.92674499  .00000150  00000+0  90792-4 0  9991", "line2": "2 65815  98.6585 287.4914 0000634  95.2309 264.8940 14.19905149 11091"}}, "geometry": {"type": "Point", "coordinates": [-98.86382873882859, 71.56168921644039]}}]}